H1 CPF  1  HTS 2022  7 14 12  6951 larets           NONE
H2  0304206 5557    27944 2022 07 14  0  0  0 2022 07 19  0  0  0   180 1 1  0 0 0
H5  0.0560 
H9 
10 0 59777  82440.00000  0    1210394.558    -146497.222    6948432.060
10 0 59777  82620.00000  0     300974.826   -1162722.390    6949890.395
10 0 59777  82800.00000  0    -645180.135   -2112325.719    6696918.527
10 0 59777  82980.00000  0   -1591453.966   -2960237.846    6198551.467
10 0 59777  83160.00000  0   -2500290.757   -3675983.732    5472798.694
10 0 59777  83340.00000  0   -3334688.711   -4234809.415    4546049.996
10 0 59777  83520.00000  0   -4059735.715   -4618586.432    3452162.665
10 0 59777  83700.00000  0   -4644104.849   -4816445.315    2231245.003
10 0 59777  83880.00000  0   -5061441.647   -4825109.666     928180.251
10 0 59777  84060.00000  0   -5291575.453   -4648905.520    -409062.351
10 0 59777  84240.00000  0   -5321484.517   -4299439.131   -1731257.450
10 0 59777  84420.00000  0   -5145956.990   -3794956.586   -2989811.834
10 0 59777  84600.00000  0   -4767907.992   -3159419.840   -4138612.039
10 0 59777  84780.00000  0   -4198347.310   -2421361.201   -5135742.816
10 0 59777  84960.00000  0   -3456008.756   -1612581.249   -5945009.177
10 0 59777  85140.00000  0   -2566668.995    -766759.130   -6537207.058
10 0 59777  85320.00000  0   -1562196.116      81957.479   -6891108.841
10 0 59777  85500.00000  0    -479374.057     900319.317   -6994144.948
10 0 59777  85680.00000  0     641444.115    1657251.451   -6842786.185
10 0 59777  85860.00000  0    1757816.421    2325003.742   -6442635.663
10 0 59777  86040.00000  0    2826791.716    2880147.500   -5808228.661
10 0 59777  86220.00000  0    3806537.111    3304387.475   -4962535.766
10 0 59778      0.00000  0    4657961.196    3585165.446   -3936185.223
10 0 59778    180.00000  0    5346283.266    3716036.410   -2766410.140
10 0 59778    360.00000  0    5842477.108    3696796.757   -1495739.247
10 0 59778    540.00000  0    6124523.664    3533356.493    -170470.204
10 0 59778    720.00000  0    6178407.532    3237353.271    1161021.983
10 0 59778    900.00000  0    5998802.136    2825524.007    2450074.161
10 0 59778   1080.00000  0    5589401.541    2318866.383    3649545.589
10 0 59778   1260.00000  0    4962879.789    1741630.536    4715571.867
10 0 59778   1440.00000  0    4140479.245    1120193.421    5609179.537
10 0 59778   1620.00000  0    3151259.201     481875.104    6297704.180
10 0 59778   1800.00000  0    2031032.327    -146247.322    6755960.459
10 0 59778   1980.00000  0     821050.772    -738472.915    6967132.594
10 0 59778   2160.00000  0    -433517.904   -1271520.087    6923376.299
10 0 59778   2340.00000  0   -1685274.700   -1725441.539    6626107.543
10 0 59778   2520.00000  0   -2886372.353   -2084377.162    6085974.409
10 0 59778   2700.00000  0   -3990344.625   -2337119.421    5322522.032
10 0 59778   2880.00000  0   -4953937.065   -2477479.935    4363541.048
10 0 59778   3060.00000  0   -5738855.535   -2504434.235    3244093.020
10 0 59778   3240.00000  0   -6313353.182   -2422033.040    2005247.596
10 0 59778   3420.00000  0   -6653587.665   -2239087.474     692567.256
10 0 59778   3600.00000  0   -6744668.551   -1968635.640    -645616.038
10 0 59778   3780.00000  0   -6581328.578   -1627213.726   -1960049.354
10 0 59778   3960.00000  0   -6168179.148   -1233974.298   -3202445.057
10 0 59778   4140.00000  0   -5519540.893    -809703.074   -4327309.973
10 0 59778   4320.00000  0   -4658869.110    -375786.565   -5293636.543
10 0 59778   4500.00000  0   -3617812.076      46814.270   -6066385.267
10 0 59778   4680.00000  0   -2434959.575     438530.761   -6617704.600
10 0 59778   4860.00000  0   -1154354.283     782049.606   -6927859.462
10 0 59778   5040.00000  0     176169.404    1063039.765   -6985861.594
10 0 59778   5220.00000  0    1506756.247    1270722.504   -6789800.056
10 0 59778   5400.00000  0    2787365.063    1398268.704   -6346884.622
10 0 59778   5580.00000  0    3969619.825    1443014.767   -5673189.188
10 0 59778   5760.00000  0    5008612.788    1406489.200   -4793103.577
10 0 59778   5940.00000  0    5864610.928    1294252.251   -3738506.880
10 0 59778   6120.00000  0    6504602.962    1115553.001   -2547666.897
10 0 59778   6300.00000  0    6903621.145     882815.462   -1263893.566
10 0 59778   6480.00000  0    7045773.747     610974.570      66021.404
10 0 59778   6660.00000  0    6924923.802     316691.796    1393520.093
10 0 59778   6840.00000  0    6544979.876      17489.539    2670076.531
10 0 59778   7020.00000  0    5919775.145    -269153.950    3849005.440
10 0 59778   7200.00000  0    5072537.466    -526699.807    4887194.209
10 0 59778   7380.00000  0    4034987.092    -740387.205    5746687.401
10 0 59778   7560.00000  0    2846103.093    -897976.009    6396063.722
10 0 59778   7740.00000  0    1550625.041    -990356.868    6811558.602
10 0 59778   7920.00000  0     197352.367   -1012007.106    6977909.351
10 0 59778   8100.00000  0   -1162699.723    -961272.690    6888898.369
10 0 59778   8280.00000  0   -2478217.340    -840465.333    6547584.461
10 0 59778   8460.00000  0   -3699518.967    -655769.074    5966224.022
10 0 59778   8640.00000  0   -4780448.264    -416958.710    5165880.926
10 0 59778   8820.00000  0   -5680166.562    -136939.699    4175714.967
10 0 59778   9000.00000  0   -6364765.069     168875.814    3031955.032
10 0 59778   9180.00000  0   -6808623.034     483332.412    1776587.830
10 0 59778   9360.00000  0   -6995447.860     788399.949     455799.415
10 0 59778   9540.00000  0   -6918932.271    1066101.297    -881775.780
10 0 59778   9720.00000  0   -6582982.337    1299450.508   -2186917.330
10 0 59778   9900.00000  0   -6001507.655    1473349.307   -3411698.422
10 0 59778  10080.00000  0   -5197787.811    1575395.682   -4511302.321
10 0 59778  10260.00000  0   -4203449.044    1596556.856   -5445681.868
10 0 59778  10440.00000  0   -3057127.452    1531677.509   -6180993.419
10 0 59778  10620.00000  0   -1802896.730    1379802.767   -6690765.665
10 0 59778  10800.00000  0    -488532.180    1144307.553   -6956778.468
10 0 59778  10980.00000  0     836312.777     832831.530   -6969636.937
10 0 59778  11160.00000  0    2121953.711     457026.062   -6729054.141
10 0 59778  11340.00000  0    3320505.116      32119.417   -6243839.296
10 0 59778  11520.00000  0    4387632.952    -423685.236   -5531586.808
10 0 59778  11700.00000  0    5284177.469    -889960.838   -4618079.384
10 0 59778  11880.00000  0    5977603.640   -1344932.791   -3536413.317
10 0 59778  12060.00000  0    6443220.479   -1766449.108   -2325852.182
10 0 59778  12240.00000  0    6665113.689   -2133004.809   -1030437.896
10 0 59778  12420.00000  0    6636742.510   -2424772.372     302599.772
10 0 59778  12600.00000  0    6361165.150   -2624586.686    1624576.844
10 0 59778  12780.00000  0    5850873.081   -2718832.730    2887163.244
10 0 59778  12960.00000  0    5127235.911   -2698188.849    4044183.577
10 0 59778  13140.00000  0    4219586.697   -2558184.090    5053327.097
10 0 59778  13320.00000  0    3164004.017   -2299546.051    5877698.874
10 0 59778  13500.00000  0    2001843.227   -1928323.182    6487157.779
10 0 59778  13680.00000  0     778091.442   -1455775.205    6859391.524
10 0 59778  13860.00000  0    -460384.797    -898039.479    6980707.241
10 0 59778  14040.00000  0   -1666633.149    -275582.735    6846519.085
10 0 59778  14220.00000  0   -2795389.410     387543.637    6461527.853
10 0 59778  14400.00000  0   -3804780.005    1064624.245    5839588.729
10 0 59778  14580.00000  0   -4657901.498    1727347.309    5003262.085
10 0 59778  14760.00000  0   -5324221.343    2346984.350    3983044.917
10 0 59778  14940.00000  0   -5780736.771    2895637.666    2816291.612
10 0 59778  15120.00000  0   -6012835.640    3347498.044    1545855.177
10 0 59778  15300.00000  0   -6014817.664    3680053.834     218490.092
10 0 59778  15480.00000  0   -5790034.804    3875183.348   -1116924.872
10 0 59778  15660.00000  0   -5350641.549    3920068.697   -2411257.774
10 0 59778  15840.00000  0   -4716964.654    3807881.359   -3617005.018
10 0 59778  16020.00000  0   -3916526.866    3538199.493   -4690083.934
10 0 59778  16200.00000  0   -2982792.741    3117143.160   -5591452.515
10 0 59778  16380.00000  0   -1953714.942    2557231.661   -6288496.821
10 0 59778  16560.00000  0    -870154.245    1876978.331   -6756152.340
10 0 59778  16740.00000  0     225757.264    1100244.109   -6977728.733
10 0 59778  16920.00000  0    1292239.153     255384.439   -6945434.758
10 0 59778  17100.00000  0    2289427.247    -625782.081   -6660608.595
10 0 59778  17280.00000  0    3180832.672   -1509154.630   -6133647.355
10 0 59778  17460.00000  0    3934652.697   -2359641.905   -5383646.547
10 0 59778  17640.00000  0    4524901.662   -3142531.960   -4437756.756
10 0 59778  17820.00000  0    4932321.448   -3824897.648   -3330255.681
10 0 59778  18000.00000  0    5145035.070   -4376976.815   -2101358.106
10 0 59778  18180.00000  0    5158917.372   -4773471.621    -795789.433
10 0 59778  18360.00000  0    4977654.843   -4994704.419     538834.919
10 0 59778  18540.00000  0    4612482.365   -5027567.291    1853763.958
10 0 59778  18720.00000  0    4081606.324   -4866208.561    3100924.064
10 0 59778  18900.00000  0    3409343.361   -4512421.737    4234706.460
10 0 59778  19080.00000  0    2625019.777   -3975717.566    5213654.776
10 0 59778  19260.00000  0    1761689.129   -3273075.225    6001982.260
10 0 59778  19440.00000  0     854731.579   -2428388.792    6570864.705
10 0 59778  19620.00000  0     -59601.670   -1471636.043    6899465.904
10 0 59778  19800.00000  0    -945635.120    -437806.904    6975674.235
10 0 59778  19980.00000  0   -1769655.083     634374.958    6796539.954
10 0 59778  20160.00000  0   -2501192.669    1703896.284    6368401.011
10 0 59778  20340.00000  0   -3114161.280    2729018.595    5706692.355
99
